[{"OBJECT_NAME":"HAWK-11C","OBJECT_ID":"2024-247E","EPOCH":"2026-03-09T12:17:35.407968","MEAN_MOTION":15.2884802,"ECCENTRICITY":0.00059001,"INCLINATION":45.0045,"RA_OF_ASC_NODE":114.8762,"ARG_OF_PERICENTER":329.704,"MEAN_ANOMALY":30.3502,"EPHEMERIS_TYPE":0,"CLASSIFICATION_TYPE":"U","NORAD_CAT_ID":62381,"ELEMENT_SET_NO":999,"REV_AT_EPOCH":6774,"BSTAR":0.00033290115,"MEAN_MOTION_DOT":9.223e-5,"MEAN_MOTION_DDOT":0},{"OBJECT_NAME":"STARLINK-35800","OBJECT_ID":"2025-247AC","EPOCH":"2026-03-09T20:29:26.333664","MEAN_MOTION":15.30218347,"ECCENTRICITY":0.00015197,"INCLINATION":53.1604,"RA_OF_ASC_NODE":190.3322,"ARG_OF_PERICENTER":33.9728,"MEAN_ANOMALY":326.137,"EPHEMERIS_TYPE":0,"CLASSIFICATION_TYPE":"U","NORAD_CAT_ID":66291,"ELEMENT_SET_NO":999,"REV_AT_EPOCH":2111,"BSTAR":0.0014607239,"MEAN_MOTION_DOT":0.0004318,"MEAN_MOTION_DDOT":0}]
